     2.100          NAVIGATION                              RINEX VERSION / TYPE
fic2rin                                 09/22/2012 00:07:30 PGM / RUN BY / DATE
                                                            END OF HEADER
 8 12  9 21  8  0  0.0  .221189111471D-05  .113686837722D-12  .000000000000D+00
     .300000000000D+01 -.552187500000D+02  .396445084958D-08  .107459388773D+01
    -.265240669250D-05  .127253545215D-01  .420771539211D-05  .515365007401D+04
     .460800000000D+06  .372529029846D-08  .673060812827D-02  .165775418282D-06
     .998487044890D+00  .316281250000D+03 -.293032782467D+01 -.809498004555D-08
    -.396802242692D-09  .100000000000D+01  .170600000000D+04  .000000000000D+00
     .240000000000D+01  .000000000000D+00 -.419095158577D-08  .300000000000D+01
     .453606000000D+06  .400000000000D+01
 9 12  9 21  8  0  0.0  .187019351870D-03  .261479726760D-11  .000000000000D+00
     .115000000000D+03 -.359375000000D+02  .432803742299D-08  .111476781695D+01
    -.222772359848D-05  .172954277368D-01  .415369868279D-05  .515360463715D+04
     .460800000000D+06 -.204890966415D-06 -.103951460876D+00 -.260770320892D-06
     .984795811098D+00  .314218750000D+03  .164629639949D+01 -.831141763248D-08
    -.158935191717D-09  .100000000000D+01  .170600000000D+04  .000000000000D+00
     .485000000000D+01  .000000000000D+00 -.558793544769D-08  .115000000000D+03
     .453606000000D+06  .400000000000D+01
10 12  9 21  8  0  0.0 -.525121577084D-04 -.136424205266D-11  .000000000000D+00
     .270000000000D+02  .564687500000D+02  .480162857853D-08 -.781190935350D+00
     .309199094772D-05  .116342398105D-01  .105779618025D-04  .515372430229D+04
     .460800000000D+06  .126659870148D-06 -.217153147773D+01  .152736902237D-06
     .945101335721D+00  .166500000000D+03  .758334111637D+00 -.821819946385D-08
    -.197865384745D-09  .100000000000D+01  .170600000000D+04  .000000000000D+00
     .240000000000D+01  .000000000000D+00 -.232830643654D-08  .270000000000D+02
     .453606000000D+06  .400000000000D+01
11 12  9 21  8  0  0.0 -.304901041090D-03 -.386535248253D-11  .000000000000D+00
     .240000000000D+02 -.271562500000D+02  .642348184952D-08  .187446864371D+01
    -.159814953804D-05  .135198937496D-01  .623986124992D-05  .515367382050D+04
     .460800000000D+06 -.145286321640D-06  .276496401811D+01 -.301748514175D-06
     .888563155125D+00  .221687500000D+03  .109313395326D+01 -.897894543769D-08
    -.571452374714D-10  .100000000000D+01  .170600000000D+04  .000000000000D+00
     .240000000000D+01  .000000000000D+00 -.121071934700D-07  .240000000000D+02
     .453606000000D+06  .400000000000D+01
12 12  9 21  8  0  0.0  .920523889363D-04  .204636307899D-11  .000000000000D+00
     .104000000000D+03 -.692500000000D+02  .398516599816D-08  .137213365060D+01
    -.357814133167D-05  .397743878420D-02  .891089439392D-05  .515371607780D+04
     .460800000000D+06 -.745058059692D-08  .977534854205D+00  .651925802231D-07
     .981139162510D+00  .218156250000D+03  .146396419736D+00 -.776389482595D-08
    -.857178562071D-11  .100000000000D+01  .170600000000D+04  .000000000000D+00
     .240000000000D+01  .000000000000D+00 -.121071934700D-07  .104000000000D+03
     .453606000000D+06  .400000000000D+01
13 12  9 21  8  0  0.0  .179685186595D-03 -.261479726760D-11  .000000000000D+00
     .610000000000D+02  .908125000000D+02  .422160441820D-08 -.227368383464D+01
     .488013029099D-05  .480314565357D-02  .458769500256D-05  .515361843109D+04
     .460800000000D+06  .223517417908D-07 -.104816914580D+01  .558793544769D-07
     .984177935944D+00  .306375000000D+03  .207709580011D+01 -.806283584948D-08
     .211080220910D-09  .100000000000D+01  .170600000000D+04  .000000000000D+00
     .240000000000D+01  .000000000000D+00 -.111758708954D-07  .610000000000D+02
     .453606000000D+06  .400000000000D+01
14 12  9 21  8  0  0.0  .213136896491D-03  .909494701773D-12  .000000000000D+00
     .580000000000D+02  .727500000000D+02  .430589364347D-08 -.202175826418D+01
     .388547778130D-05  .681058759801D-02  .480748713017D-05  .515364686775D+04
     .460800000000D+06  .745058059692D-07 -.107568915987D+01  .596046447754D-07
     .976950810494D+00  .293500000000D+03 -.204637688598D+01 -.804283501636D-08
     .202508435289D-09  .100000000000D+01  .170600000000D+04  .000000000000D+00
     .240000000000D+01  .000000000000D+00 -.931322574615D-08  .580000000000D+02
     .453606000000D+06  .400000000000D+01
15 12  9 21  8  0  0.0 -.957562588155D-04 -.682121026330D-12  .000000000000D+00
     .760000000000D+02  .913750000000D+02  .510056960205D-08 -.243951700091D+01
     .469945371151D-05  .466326600872D-02  .585429370403D-05  .515363247871D+04
     .460800000000D+06 -.102445483208D-06 -.116738800011D+01 -.100582838058D-06
     .943677669197D+00  .261062500000D+03  .350831849669D-01 -.841035032485D-08
     .189650756858D-09  .100000000000D+01  .170600000000D+04  .000000000000D+00
     .240000000000D+01  .000000000000D+00 -.102445483208D-07  .760000000000D+02
     .453606000000D+06  .400000000000D+01
16 12  9 21  8  0  0.0 -.246455892920D-03 -.795807864051D-12  .000000000000D+00
     .109000000000D+03 -.542812500000D+02  .390016245742D-08 -.850742474462D+00
    -.289827585220D-05  .651557045057D-02  .979565083981D-05  .515375112152D+04
     .460800000000D+06  .912696123123D-07  .995763250885D+00 -.121071934700D-06
     .981915416101D+00  .203156250000D+03  .310431757700D-01 -.775210862073D-08
     .657170230921D-10  .100000000000D+01  .170600000000D+04  .000000000000D+00
     .240000000000D+01  .000000000000D+00 -.977888703346D-08  .109000000000D+03
     .453606000000D+06  .400000000000D+01
17 12  9 21  8  0  0.0  .946270301938D-04 -.329691829393D-11  .000000000000D+00
     .440000000000D+02 -.125625000000D+02  .452518849226D-08 -.176097450384D+01
    -.616535544395D-06  .755202397704D-02  .789947807789D-05  .515373386765D+04
     .460800000000D+06  .173225998878D-06  .203547445681D+01 -.126659870148D-06
     .963444602192D+00  .230937500000D+03 -.229786691063D+01 -.787175646168D-08
     .367872466222D-09  .100000000000D+01  .170600000000D+04  .000000000000D+00
     .240000000000D+01  .000000000000D+00 -.107102096081D-07  .440000000000D+02
     .453606000000D+06  .400000000000D+01
19 12  9 21  8  0  0.0 -.305819325149D-03 -.352429196937D-11  .000000000000D+00
     .570000000000D+02 -.328125000000D+01  .463269297026D-08 -.258445151198D+01
    -.188127160072D-06  .858789996710D-02  .755675137043D-05  .515361762810D+04
     .460800000000D+06 -.670552253723D-07  .208818446460D+01 -.428408384323D-07
     .960797668439D+00  .235187500000D+03  .251363669483D+00 -.802283418325D-08
     .394302138552D-09  .100000000000D+01  .170600000000D+04  .000000000000D+00
     .240000000000D+01  .000000000000D+00 -.149011611938D-07  .570000000000D+02
     .453606000000D+06  .400000000000D+01
20 12  9 21  8  0  0.0  .686673447490D-04  .795807864051D-12  .000000000000D+00
     .920000000000D+02  .550937500000D+02  .514485716109D-08  .150949620595D+00
     .262074172497D-05  .503097288311D-02  .103116035461D-04  .515363502502D+04
     .460800000000D+06 -.167638063431D-07 -.223819567445D+01  .111758708954D-07
     .929508162134D+00  .166843750000D+03  .127214946410D+01 -.834749056363D-08
    -.190007914592D-09  .100000000000D+01  .170600000000D+04  .000000000000D+00
     .240000000000D+01  .000000000000D+00 -.791624188423D-08  .920000000000D+02
     .453606000000D+06  .400000000000D+01
21 12  9 21  8  0  0.0 -.251026824117D-03 -.238742359215D-11  .000000000000D+00
     .850000000000D+02 -.221562500000D+02  .545665586305D-08  .834319813158D+00
    -.101141631603D-05  .193314303178D-01  .742450356483D-05  .515378939438D+04
     .460800000000D+06 -.266358256340D-06  .304913537225D+01  .100582838058D-06
     .931792292203D+00  .226000000000D+03 -.221582025173D+01 -.872572060414D-08
    -.383944564261D-09  .100000000000D+01  .170600000000D+04  .000000000000D+00
     .240000000000D+01  .000000000000D+00 -.111758708954D-07  .850000000000D+02
     .453606000000D+06  .400000000000D+01
22 12  9 21  8  0  0.0  .148150138557D-03  .682121026330D-12  .000000000000D+00
     .110000000000D+02  .542187500000D+02  .514878589617D-08 -.106664941894D+01
     .296905636787D-05  .630315660965D-02  .982731580734D-05  .515368034744D+04
     .460800000000D+06  .316649675369D-07 -.218141850278D+01  .189989805222D-06
     .926638765355D+00  .172906250000D+03 -.200394045740D+01 -.834999066777D-08
    -.957182727646D-10  .100000000000D+01  .170600000000D+04  .000000000000D+00
     .240000000000D+01  .000000000000D+00 -.172294676304D-07  .110000000000D+02
     .453606000000D+06  .400000000000D+01
23 12  9 21  8  0  0.0  .162329524755D-03 -.397903932026D-11  .000000000000D+00
     .270000000000D+02  .100875000000D+03  .469769567788D-08 -.297716930147D+01
     .523030757904D-05  .822851841804D-02  .492297112942D-05  .515358840179D+04
     .460800000000D+06 -.465661287308D-07 -.112992125053D+01 -.670552253723D-07
     .958496255456D+00  .289125000000D+03 -.293219490752D+01 -.821427072878D-08
     .201436962087D-09  .100000000000D+01  .170600000000D+04  .000000000000D+00
     .240000000000D+01  .000000000000D+00 -.200234353542D-07  .270000000000D+02
     .453606000000D+06  .400000000000D+01
26 12  9 21  8  0  0.0 -.273350160569D-03  .131876731757D-10  .000000000000D+00
     .730000000000D+02  .100281250000D+03  .415195866003D-08 -.311420831347D+01
     .490806996822D-05  .207861588569D-01  .523403286934D-05  .515366559601D+04
     .460800000000D+06  .253319740295D-06 -.105464170103D+01 -.311061739922D-06
     .981686557197D+00  .285562500000D+03  .120673356367D+01 -.778496713227D-08
     .193222334200D-09  .100000000000D+01  .170600000000D+04  .000000000000D+00
     .240000000000D+01  .000000000000D+00 -.605359673500D-08  .730000000000D+02
     .453606000000D+06  .400000000000D+01
